FLOCK 4BE-29            
1 60509U 24149AT  26115.78902616  .00019404  00000+0  45063-3 0  9992
2 60509  97.3804 200.9450 0004289 122.6186 237.5475 15.42394037 94332
FLOCK 4BE-2             
1 60511U 24149AV  26115.83059294  .00050565  00000+0  97999-3 0  9994
2 60511  97.3817 201.8572 0004840 123.6649 236.5063 15.47528529 94390
FLOCK 4BE-13            
1 60512U 24149AW  26115.75857887  .00014827  00000+0  36797-3 0  9990
2 60512  97.3719 199.6840 0005585 102.7225 257.4646 15.40437603 94292
FLOCK 4BE-27            
1 60513U 24149AX  26115.74767348  .00009240  00000+0  28744-3 0  9998
2 60513  97.3825 197.6113 0005536 123.1706 237.0068 15.33518416 94105
FLOCK 4BE-9             
1 60514U 24149AY  26115.78283279  .00016769  00000+0  43315-3 0  9994
2 60514  97.3789 199.6118 0004499 124.3781 235.7891 15.39192666 94251
FLOCK 4BE-6             
1 60516U 24149BA  26115.70754685  .00015453  00000+0  41346-3 0  9993
2 60516  97.3790 198.9876 0005226 123.2243 236.9504 15.38122619 94207
FLOCK 4BE-14            
1 60517U 24149BB  26115.73619638  .00016606  00000+0  42667-3 0  9993
2 60517  97.3695 199.1130 0006173 122.7844 237.3997 15.39348265 94255
FLOCK 4BE-1             
1 60518U 24149BC  26115.22007880  .00018668  00000+0  45681-3 0  9997
2 60518  97.3777 199.6876 0005740 124.5317 235.6472 15.40815828 94214
FLOCK 4BE-28            
1 60519U 24149BD  26115.76590205  .00018700  00000+0  42505-3 0  9994
2 60519  97.3745 200.8048 0005791 118.9950 241.1879 15.43037933 94356
FLOCK 4BE-35            
1 60558U 24149CU  26115.80707979  .00137574  00000+0  20951-2 0  9991
2 60558  97.3708 200.0632 0004369 154.8801 205.2666 15.54010259 94295
FLOCK 4BE-5             
1 60559U 24149CV  26115.76861609  .00015861  00000+0  41607-3 0  9994
2 60559  97.3841 199.3276 0004809 124.0729 236.0973 15.38728848 94212
FLOCK 4BE-12            
1 60560U 24149CW  26115.19017667  .00202270  00000+0  25033-2 0  9996
2 60560  97.3666 200.4253 0004938 170.0019 190.1336 15.59399549 94289
FLOCK 4BE-3             
1 60561U 24149CX  26115.80032294  .00019858  00000+0  50033-3 0  9995
2 60561  97.3697 199.2765 0005908 117.7140 242.4706 15.39911940 94272
FLOCK 4BE-19            
1 60563U 24149CZ  26115.80141900  .00020839  00000+0  48487-3 0  9993
2 60563  97.3738 200.5754 0005755 119.4862 240.6960 15.42315077 94347
FLOCK 4G-8              
1 62613U 25009E   26115.80251277  .00012439  00000+0  44784-3 0  9999
2 62613  97.4007 198.0685 0005640 133.2557 226.9155 15.28711170 70915
FLOCK 4G-13             
1 62621U 25009N   26115.75673692  .00057127  00000+0  15174-2 0  9994
2 62621  97.3974 198.3520 0005810 149.4558 210.7026 15.38058703 70922
